OBJECT_NAME,OBJECT_ID,EPOCH,MEAN_MOTION,ECCENTRICITY,INCLINATION,RA_OF_ASC_NODE,ARG_OF_PERICENTER,MEAN_ANOMALY,EPHEMERIS_TYPE,CLASSIFICATION_TYPE,NORAD_CAT_ID,ELEMENT_SET_NO,REV_AT_EPOCH,BSTAR,MEAN_MOTION_DOT,MEAN_MOTION_DDOT
FENGYUN 1C DEB,1999-025VW,2021-02-09T18:52:16.478976,14.01736158,.0082222,99.2379,75.1852,104.1969,317.2727,0,U,30213,999,71734,.19038E-3,.252E-5,0
FENGYUN 1C DEB,1999-025VX,2021-02-09T10:44:11.237856,14.16732654,.0028373,98.8558,100.5156,97.5053,274.8842,0,U,30214,999,72457,.33108E-3,.62E-5,0
FENGYUN 1C DEB,1999-025VZ,2021-02-09T18:16:32.925216,14.67879171,.0078748,99.0430,153.4867,22.4379,144.1080,0,U,30216,999,74561,.27018E-3,.1554E-4,0
FENGYUN 1C DEB,1999-025WA,2021-02-09T13:41:11.901696,14.21713651,.0145189,98.4703,81.2012,219.7770,139.2693,0,U,30217,999,72944,.52457E-4,.86E-6,0
FENGYUN 1C DEB,1999-025WB,2021-02-09T14:45:02.006784,14.10508833,.0090212,99.0806,82.7544,228.6714,295.7921,0,U,30218,999,72088,.40585E-3,.704E-5,0
FENGYUN 1C DEB,1999-025WE,2021-02-09T10:21:05.794848,14.41421621,.0153702,99.0057,3.1703,239.7803,118.8090,0,U,30221,999,73913,.25276E-4,.37E-6,0
FENGYUN 1C DEB,1999-025WF,2021-02-09T13:56:23.004384,14.03386134,.003673,99.0732,79.2891,274.5150,238.2161,0,U,30222,999,72047,-.45867E-4,-.117E-5,0
FENGYUN 1C DEB,1999-025WH,2021-02-09T10:41:04.869600,13.87989778,.0114494,99.4936,19.4298,16.4217,108.4170,0,U,30224,999,71211,.11172E-3,.94E-6,0
FENGYUN 1C DEB,1999-025WJ,2021-02-09T08:11:32.145792,14.13705229,.0102548,98.8729,79.3577,82.6095,289.9044,0,U,30225,999,72555,.47647E-4,.51E-6,0
FENGYUN 1C DEB,1999-025WL,2021-02-09T05:25:44.218272,14.36450363,.0005004,99.0767,270.1035,358.6078,126.1367,0,U,30227,999,73079,.67441E-3,.1929E-4,0
FENGYUN 1C DEB,1999-025WM,2021-02-09T06:50:52.698624,14.94214133,.0041975,98.9615,167.3731,163.8805,196.3757,0,U,30228,999,74934,.62169E-3,.6709E-4,0
FENGYUN 1C DEB,1999-025WN,2021-02-09T10:49:46.347168,14.36242378,.0057466,99.0341,321.1610,240.1782,181.4366,0,U,30229,999,73415,.19211E-3,.523E-5,0
FENGYUN 1C DEB,1999-025WP,2021-02-09T05:37:36.951744,14.49552862,.0110308,98.9957,290.6018,246.8613,233.2999,0,U,30230,999,73430,.56553E-3,.2288E-4,0
FENGYUN 1C DEB,1999-025WQ,2021-02-09T09:05:25.448928,14.07027510,.0135348,99.0174,83.9635,317.9936,52.6331,0,U,30231,999,72136,.1329E-3,.195E-5,0
FENGYUN 1C DEB,1999-025WR,2021-02-09T20:43:30.842688,14.47205942,.0174011,98.5529,164.0211,332.3821,188.3547,0,U,30232,999,74107,.75359E-4,.276E-5,0
FENGYUN 1C DEB,1999-025WS,2021-02-09T14:42:18.654624,14.50394760,.0056319,99.0411,3.7828,62.0009,298.6866,0,U,30233,999,73767,.47517E-3,.1841E-4,0
FENGYUN 1C DEB,1999-025WT,2021-02-09T02:12:55.749024,14.14021788,.0069944,98.7765,74.7233,89.4549,294.2751,0,U,30234,999,72457,.88552E-4,.129E-5,0
FENGYUN 1C DEB,1999-025WU,2021-02-09T08:55:36.777216,14.05809081,.0160048,98.9287,77.8263,165.2650,206.9209,0,U,30235,999,72042,.12459E-3,.185E-5,0
FENGYUN 1C DEB,1999-025WW,2021-02-09T14:50:00.792672,14.19777711,.0018375,98.9101,101.9668,44.2273,119.6354,0,U,30237,999,72515,.4269E-3,.86E-5,0
FENGYUN 1C DEB,1999-025WY,2021-02-07T11:41:14.220960,11.13895520,.153342,99.5513,62.1327,150.4784,219.2461,0,U,30239,999,34678,.34092E-2,.134E-4,0
FENGYUN 1C DEB,1999-025XA,2021-02-09T13:44:09.433824,14.06689524,.0150188,99.0081,145.5513,338.5760,32.5299,0,U,30241,999,72048,.12189E-3,.179E-5,0
FENGYUN 1C DEB,1999-025XB,2021-02-09T14:51:11.002176,14.12941614,.0012132,98.8760,83.1594,51.3311,113.9207,0,U,30242,999,72441,.14178E-3,.22E-5,0
FENGYUN 1C DEB,1999-025XC,2021-02-09T13:32:07.892736,14.10135501,.0014368,98.8381,74.9831,92.3614,60.4658,0,U,30243,999,72354,.11711E-3,.164E-5,0
FENGYUN 1C DEB,1999-025XD,2021-02-09T17:00:50.331168,14.12044010,.0009948,99.2675,213.6325,217.4219,204.8898,0,U,30244,999,72403,.1251E-3,.182E-5,0
FENGYUN 1C DEB,1999-025XE,2021-02-09T10:54:22.910112,13.74017552,.0203069,98.9785,119.4153,274.5659,83.2322,0,U,30245,999,70392,.35386E-3,.343E-5,0
FENGYUN 1C DEB,1999-025XF,2021-02-09T07:52:35.543424,13.35784013,.0372888,98.6514,62.7552,214.7809,155.2897,0,U,30246,999,68535,.11304E-3,.5E-6,0
FENGYUN 1C DEB,1999-025XG,2021-02-09T10:10:54.014592,14.14636961,.0331554,98.2478,10.7976,189.4598,333.9236,0,U,30247,999,72043,.1657E-3,.495E-5,0
FENGYUN 1C DEB,1999-025XH,2021-02-09T17:13:43.492800,14.15626997,.0064118,99.0903,130.1417,201.0321,158.8213,0,U,30248,999,72213,.73414E-3,.142E-4,0
FENGYUN 1C DEB,1999-025XJ,2021-02-09T12:36:02.913408,14.18984492,.005467,98.9435,133.3924,147.2083,225.4210,0,U,30249,999,72440,.45895E-3,.927E-5,0
FENGYUN 1C DEB,1999-025XK,2021-02-09T14:11:06.822816,13.99150500,.0066078,98.8458,83.8323,97.8361,54.0369,0,U,30250,999,71764,.73216E-4,.66E-6,0
FENGYUN 1C DEB,1999-025XL,2021-02-09T14:12:07.181856,14.23573580,.0056043,98.9120,169.5301,23.7483,39.2640,0,U,30251,999,72962,.91305E-4,.166E-5,0
FENGYUN 1C DEB,1999-025XM,2021-02-09T13:19:06.905856,14.06444802,.0070169,98.9022,76.8075,174.2876,349.5068,0,U,30252,999,72103,.25949E-3,.395E-5,0
FENGYUN 1C DEB,1999-025XN,2021-02-09T09:57:37.149984,13.64912967,.0240043,98.7196,277.6903,31.6980,22.0020,0,U,30253,999,69850,.65056E-3,.602E-5,0
FENGYUN 1C DEB,1999-025XR,2021-02-09T16:12:29.757888,15.85803533,.0009369,98.9621,317.2514,159.6869,200.4771,0,U,30256,999,75540,.42207E-2,.114207E-1,0
FENGYUN 1C DEB,1999-025XS,2021-02-09T12:28:46.298784,14.08565899,.0060356,98.8053,67.3092,52.8685,110.9831,0,U,30257,999,72331,.96002E-4,.125E-5,0
FENGYUN 1C DEB,1999-025XU,2021-02-09T08:20:52.935360,14.42569228,.027195,98.6549,172.9503,179.8520,205.9460,0,U,30259,999,73935,.56911E-4,.234E-5,0
FENGYUN 1C DEB,1999-025XW,2021-02-09T14:09:44.374752,14.86499789,.0189229,98.7594,179.2455,354.6925,5.2279,0,U,30261,999,75779,.4893E-4,.512E-5,0
FENGYUN 1C DEB,1999-025XX,2021-02-09T19:42:37.491264,14.79008660,.0061952,99.0242,171.2177,273.1216,86.2904,0,U,30262,999,74795,.41805E-3,.3122E-4,0
FENGYUN 1C DEB,1999-025XY,2021-02-09T09:09:12.762144,13.92964163,.0165391,98.7851,201.7822,194.5777,195.5140,0,U,30263,999,71367,.16904E-3,.204E-5,0
FENGYUN 1C DEB,1999-025XZ,2021-02-09T18:35:16.863936,14.00588487,.0118727,99.0868,85.3924,152.4958,273.9585,0,U,30264,999,71786,.42576E-3,.629E-5,0
FENGYUN 1C DEB,1999-025YA,2021-02-09T10:29:19.714272,14.28813609,.0049228,98.7357,109.4408,218.0302,274.6290,0,U,30265,999,73005,.31379E-3,.756E-5,0
FENGYUN 1C DEB,1999-025YB,2021-02-09T12:50:22.847424,14.04952668,.0093315,99.1729,66.6537,322.6751,191.4580,0,U,30266,999,71910,.38694E-3,.601E-5,0
FENGYUN 1C DEB,1999-025YC,2021-02-09T09:09:25.584768,14.12208783,.0068561,98.9710,89.6545,232.8025,126.6875,0,U,30267,999,72279,.28892E-3,.497E-5,0
FENGYUN 1C DEB,1999-025YF,2021-02-09T13:44:28.476384,14.10317421,.0008214,98.8651,75.0615,126.1937,25.6940,0,U,30270,999,72446,.18639E-4,-.11E-6,0
FENGYUN 1C DEB,1999-025YH,2021-02-09T14:19:15.074400,14.05506054,.0056364,99.0233,97.8590,24.9629,335.4245,0,U,30272,999,71985,.22868E-3,.332E-5,0
FENGYUN 1C DEB,1999-025YJ,2021-02-09T13:49:41.962368,13.99114868,.0070713,99.0089,77.1037,114.3084,37.5509,0,U,30273,999,71794,.57019E-4,.41E-6,0
FENGYUN 1C DEB,1999-025YK,2021-02-09T13:22:19.411104,14.26437789,.0003619,99.3298,10.5366,256.0842,169.8739,0,U,30274,999,72879,.32608E-3,.735E-5,0
FENGYUN 1C DEB,1999-025YL,2021-02-09T10:07:19.797888,14.23858937,.00526,98.7490,105.8112,332.0228,39.6844,0,U,30275,999,72812,.33959E-3,.744E-5,0
FENGYUN 1C DEB,1999-025YM,2021-02-09T13:39:47.811168,14.15791868,.0029753,98.9922,77.0754,105.9917,254.4537,0,U,30276,999,72455,.3144E-3,.575E-5,0
FENGYUN 1C DEB,1999-025YN,2021-02-09T14:32:39.738336,14.04669456,.0138404,99.1314,85.6723,79.1608,70.9992,0,U,30277,999,71924,.18775E-3,.283E-5,0
FENGYUN 1C DEB,1999-025YQ,2021-02-09T06:42:45.792288,14.15452261,.0239257,99.2605,253.3672,42.8538,8.9192,0,U,30279,999,72560,.14531E-3,.324E-5,0
FENGYUN 1C DEB,1999-025YR,2021-02-09T09:06:04.157856,13.96631524,.0080496,98.8611,86.2191,180.6585,246.7541,0,U,30280,999,71725,-.13825E-3,-.239E-5,0
FENGYUN 1C DEB,1999-025YS,2021-02-09T20:38:54.153600,14.08562905,.0029596,98.7464,63.9329,193.5794,292.1984,0,U,30281,999,72345,.12612E-3,.175E-5,0
FENGYUN 1C DEB,1999-025YT,2021-02-09T14:29:23.030592,14.10560107,.0216099,98.6812,100.7779,6.3834,161.1385,0,U,30282,999,72423,.53989E-4,.76E-6,0
FENGYUN 1C DEB,1999-025YU,2021-02-09T13:24:12.627072,14.00676902,.0188267,98.8508,66.1516,281.8730,231.5952,0,U,30283,999,71942,-.55118E-4,-.14E-5,0
FENGYUN 1C DEB,1999-025YV,2021-02-09T19:48:53.915328,14.15454954,.0047489,98.8465,101.3173,147.6027,277.7364,0,U,30284,999,72453,.33117E-3,.61E-5,0
FENGYUN 1C DEB,1999-025YX,2021-02-09T13:35:51.766368,14.11928358,.0065699,98.7920,70.5285,117.3294,35.6956,0,U,30286,999,72516,.14535E-4,-.16E-6,0
FENGYUN 1C DEB,1999-025YY,2021-02-09T12:41:31.267968,13.61108443,.0438982,98.6268,239.3808,349.6395,28.9785,0,U,30287,999,69767,.23282E-3,.298E-5,0
FENGYUN 1C DEB,1999-025YZ,2021-02-09T13:52:02.293248,14.16541075,.0027216,99.3885,341.6891,287.8093,124.0115,0,U,30288,999,72461,.37576E-3,.702E-5,0
FENGYUN 1C DEB,1999-025ZA,2021-02-09T11:13:27.159744,14.09430475,.0048327,98.9890,110.3201,304.8435,127.9878,0,U,30289,999,72088,.42376E-3,.702E-5,0
FENGYUN 1C DEB,1999-025ZB,2021-02-09T16:49:26.456160,14.22253253,.0051848,102.6433,25.5942,229.0396,304.8503,0,U,30290,999,72518,.51225E-3,.1074E-4,0
FENGYUN 1C DEB,1999-025ZC,2021-02-09T09:22:13.476864,14.19567227,.0183206,97.2322,202.6799,4.7062,24.8365,0,U,30291,999,72444,.29776E-3,.71E-5,0
FENGYUN 1C DEB,1999-025ZE,2021-02-09T12:57:07.174368,14.35821635,.0093664,99.2596,74.7125,254.9626,270.4021,0,U,30293,999,73540,.11E-3,.282E-5,0
FENGYUN 1C DEB,1999-025ZF,2021-02-09T14:03:18.408672,14.28967684,.021457,98.3891,76.2739,154.0265,357.3005,0,U,30294,999,73271,.77423E-4,.205E-5,0
FENGYUN 1C DEB,1999-025ZG,2021-02-09T18:30:59.538816,14.23208496,.0096052,98.7108,79.6225,181.2262,246.6680,0,U,30295,999,73041,.37417E-4,.45E-6,0
FENGYUN 1C DEB,1999-025ZJ,2021-02-09T12:26:16.884672,13.83539828,.0521809,98.6771,52.4448,350.0426,163.3652,0,U,30297,999,70489,.28312E-3,.855E-5,0
